CSS (TIANHE)            
1 48274U 21035A   24134.85949291  .00057236  00000+0  58600-3 0  9991
2 48274  41.4683 292.8013 0003442 333.7372  26.3293 15.64094832173726
